CUTE-1.7+APD II (CO-65) 
1 32785U 08021C   26065.19755811  .00007978  00000+0  51766-3 0  9990
2 32785  97.8209  44.6065 0010117  30.7915 329.3904 15.08312336969660
SEEDS II (CO-66)        
1 32791U 08021J   26064.92898574  .00022736  00000+0  81141-3 0  9990
2 32791  97.7518  58.2030 0002085   9.8257 350.3023 15.28882634971498
YUBILEINY (RS30)        
1 32953U 08025A   26065.24727728 -.00000035  00000+0 -32338-3 0  9996
2 32953  82.4987  59.4644 0019391 172.7452 187.3912 12.43175721806902
KKS-1 (KISEKI)          
1 33499U 09002H   26065.22582562  .00002401  00000+0  30358-3 0  9998
2 33499  98.1189 346.0687 0006417 264.5728  95.4753 14.82813706920938
SWISSCUBE               
1 35932U 09051B   26065.19296202  .00001759  00000+0  35869-3 0  9992
2 35932  98.4101 331.2738 0006841 163.0927 197.0503 14.62248300874106
BEESAT-1                
1 35933U 09051C   26065.28688956  .00001477  00000+0  30751-3 0  9996
2 35933  98.4031 331.2163 0005077 173.8074 186.3190 14.61523938874153
ITUPSAT1                
1 35935U 09051E   26065.25669722  .00001353  00000+0  29045-3 0  9992
2 35935  98.4119 330.4839 0007029 189.0317 171.0757 14.60259585873715
XIWANG-1 (HOPE-1)       
1 36122U 09072B   26065.26501897 -.00000329  00000+0 -74621-3 0  9997
2 36122 100.3914  20.7967 0008038 106.8424 253.3571 13.16434810779469
O/OREOS (USA 219)       
1 37224U 10062C   26065.04719179  .00002820  00000+0  27462-3 0  9999
2 37224  71.9718 313.8877 0016901 262.8141  97.1108 14.93255856101243
JUGNU                   
1 37839U 11058B   26064.69379151  .00000550  00000+0  14784-3 0  9990
2 37839  19.9594 217.1737 0018700  13.5816  94.8505 14.13738742744362
SRMSAT                  
1 37841U 11058D   26065.09828087  .00000474  00000+0  11348-3 0  9993
2 37841  19.9730 323.4416 0011854 149.6798 348.2789 14.11545916743237
STRAND-1                
1 39090U 13009E   26065.29197972  .00000516  00000+0  18807-3 0  9997
2 39090  98.3884 248.0682 0008822 171.6035 188.5301 14.37091392682287
ZACUBE-1 (TSHEPISOSAT)  
1 39417U 13066B   26064.86179431  .00006518  00000+0  51561-3 0  9997
2 39417  97.8184  26.6670 0041954 232.8651 126.8737 15.00278348665234
GOMX-1                  
1 39430U 13066Q   26065.28312162  .00002039  00000+0  31236-3 0  9990
2 39430  97.6565 272.2007 0130473  48.3448 312.8843 14.69081439654805
CUBEBUG-2 (LO-74)       
1 39440U 13066AA  26065.27945923  .00007469  00000+0  70155-3 0  9992
2 39440  97.8820  13.9474 0059118  10.4251 349.8178 14.92905655661639
FUNCUBE-1 (AO-73)       
1 39444U 13066AE  26064.85849596  .00011786  00000+0  76148-3 0  9993
2 39444  97.8186  34.3315 0036865 192.4906 167.5412 15.07824461664081
